{
  "type": "FeatureCollection",
  "features": [
    {
      "type": "Feature",
      "properties": {
        "norad_id": 66947,
        "name": "STARLINK-36089",
        "group": "last-30-days",
        "lat": 45.376161104262415,
        "lon": 54.06139315494757,
        "alt_km": 340.3810380416817,
        "timestamp": "2025-12-21T20:41:06.758972+00:00",
        "meta_object_name": "STARLINK-36089",
        "meta_object_id": "2025-286Y",
        "meta_epoch": "2025-12-21T14:00:01.999872",
        "meta_mean_motion": 15.74167074,
        "meta_eccentricity": 8.072e-05,
        "meta_inclination": 53.1572,
        "meta_ra_of_asc_node": 6.0046,
        "meta_arg_of_pericenter": 75.3589,
        "meta_mean_anomaly": 208.1699,
        "meta_ephemeris_type": 0,
        "meta_classification_type": "U",
        "meta_norad_cat_id": 66947,
        "meta_element_set_no": 999,
        "meta_rev_at_epoch": 341,
        "meta_bstar": 0.00013600752,
        "meta_mean_motion_dot": 0.00019316,
        "meta_mean_motion_ddot": 0,
        "tle_line1": "1 66947U 25286Y   25355.58335648  .00019316  00000+0  13601-3 0  9990",
        "tle_line2": "2 66947  53.1572   6.0046 0000807  75.3589 208.1699 15.74167074  3410"
      },
      "geometry": {
        "type": "Point",
        "coordinates": [
          54.06139315494757,
          45.376161104262415
        ]
      }
    },
    {
      "type": "Feature",
      "properties": {
        "norad_id": 66948,
        "name": "STARLINK-36116",
        "group": "last-30-days",
        "lat": 44.35628428302718,
        "lon": 51.776673514867085,
        "alt_km": 340.6171195914758,
        "timestamp": "2025-12-21T20:41:06.758981+00:00",
        "meta_object_name": "STARLINK-36116",
        "meta_object_id": "2025-286Z",
        "meta_epoch": "2025-12-21T14:00:01.999872",
        "meta_mean_motion": 15.74167536,
        "meta_eccentricity": 7.237e-05,
        "meta_inclination": 53.1574,
        "meta_ra_of_asc_node": 6.0089,
        "meta_arg_of_pericenter": 81.3136,
        "meta_mean_anomaly": 200.3041,
        "meta_ephemeris_type": 0,
        "meta_classification_type": "U",
        "meta_norad_cat_id": 66948,
        "meta_element_set_no": 999,
        "meta_rev_at_epoch": 341,
        "meta_bstar": 9.1440502e-05,
        "meta_mean_motion_dot": 0.00012771,
        "meta_mean_motion_ddot": 0,
        "tle_line1": "1 66948U 25286Z   25355.58335648  .00012771  00000+0  91441-4 0  9998",
        "tle_line2": "2 66948  53.1574   6.0089 0000723  81.3136 200.3041 15.74167536  3410"
      },
      "geometry": {
        "type": "Point",
        "coordinates": [
          51.776673514867085,
          44.35628428302718
        ]
      }
    },
    {
      "type": "Feature",
      "properties": {
        "norad_id": 66949,
        "name": "STARLINK-36096",
        "group": "last-30-days",
        "lat": 46.35433833525725,
        "lon": 56.44264606962391,
        "alt_km": 340.1134085125277,
        "timestamp": "2025-12-21T20:41:06.758990+00:00",
        "meta_object_name": "STARLINK-36096",
        "meta_object_id": "2025-286AA",
        "meta_epoch": "2025-12-21T14:00:01.999872",
        "meta_mean_motion": 15.74189433,
        "meta_eccentricity": 0.00010004,
        "meta_inclination": 53.1573,
        "meta_ra_of_asc_node": 6.0011,
        "meta_arg_of_pericenter": 83.7655,
        "meta_mean_anomaly": 201.675,
        "meta_ephemeris_type": 0,
        "meta_classification_type": "U",
        "meta_norad_cat_id": 66949,
        "meta_element_set_no": 999,
        "meta_rev_at_epoch": 341,
        "meta_bstar": -6.1422776e-05,
        "meta_mean_motion_dot": -9.614e-05,
        "meta_mean_motion_ddot": 0,
        "tle_line1": "1 66949U 25286AA  25355.58335648 -.00009614  00000+0 -61423-4 0  9990",
        "tle_line2": "2 66949  53.1573   6.0011 0001000  83.7655 201.6750 15.74189433  3417"
      },
      "geometry": {
        "type": "Point",
        "coordinates": [
          56.44264606962391,
          46.35433833525725
        ]
      }
    },
    {
      "type": "Feature",
      "properties": {
        "norad_id": 66950,
        "name": "STARLINK-36111",
        "group": "last-30-days",
        "lat": 48.147084910270145,
        "lon": 61.440091322119834,
        "alt_km": 339.8016212578441,
        "timestamp": "2025-12-21T20:41:06.759002+00:00",
        "meta_object_name": "STARLINK-36111",
        "meta_object_id": "2025-286AB",
        "meta_epoch": "2025-12-21T14:00:01.999872",
        "meta_mean_motion": 15.7423772,
        "meta_eccentricity": 0.0001098,
        "meta_inclination": 53.1574,
        "meta_ra_of_asc_node": 5.9927,
        "meta_arg_of_pericenter": 95.1216,
        "meta_mean_anomaly": 194.1272,
        "meta_ephemeris_type": 0,
        "meta_classification_type": "U",
        "meta_norad_cat_id": 66950,
        "meta_element_set_no": 999,
        "meta_rev_at_epoch": 341,
        "meta_bstar": -0.00054993174,
        "meta_mean_motion_dot": -0.00080571,
        "meta_mean_motion_ddot": 0,
        "tle_line1": "1 66950U 25286AB  25355.58335648 -.00080571  00000+0 -54993-3 0  9996",
        "tle_line2": "2 66950  53.1574   5.9927 0001098  95.1216 194.1272 15.74237720  3419"
      },
      "geometry": {
        "type": "Point",
        "coordinates": [
          61.440091322119834,
          48.147084910270145
        ]
      }
    },
    {
      "type": "Feature",
      "properties": {
        "norad_id": 66951,
        "name": "STARLINK-35999",
        "group": "last-30-days",
        "lat": 48.964141757868134,
        "lon": 64.08591657494732,
        "alt_km": 339.71787952151044,
        "timestamp": "2025-12-21T20:41:06.759012+00:00",
        "meta_object_name": "STARLINK-35999",
        "meta_object_id": "2025-286AC",
        "meta_epoch": "2025-12-21T14:00:01.999872",
        "meta_mean_motion": 15.74198432,
        "meta_eccentricity": 9.926e-05,
        "meta_inclination": 53.1577,
        "meta_ra_of_asc_node": 5.9887,
        "meta_arg_of_pericenter": 82.2774,
        "meta_mean_anomaly": 208.9241,
        "meta_ephemeris_type": 0,
        "meta_classification_type": "U",
        "meta_norad_cat_id": 66951,
        "meta_element_set_no": 999,
        "meta_rev_at_epoch": 341,
        "meta_bstar": -0.00017736949,
        "meta_mean_motion_dot": -0.00026534,
        "meta_mean_motion_ddot": 0,
        "tle_line1": "1 66951U 25286AC  25355.58335648 -.00026534  00000+0 -17737-3 0  9991",
        "tle_line2": "2 66951  53.1577   5.9887 0000992  82.2774 208.9241 15.74198432  3412"
      },
      "geometry": {
        "type": "Point",
        "coordinates": [
          64.08591657494732,
          48.964141757868134
        ]
      }
    },
    {
      "type": "Feature",
      "properties": {
        "norad_id": 66952,
        "name": "STARLINK-36122",
        "group": "last-30-days",
        "lat": 47.28201576570507,
        "lon": 58.90987166974202,
        "alt_km": 339.92859528990357,
        "timestamp": "2025-12-21T20:41:06.759021+00:00",
        "meta_object_name": "STARLINK-36122",
        "meta_object_id": "2025-286AD",
        "meta_epoch": "2025-12-21T14:00:01.999872",
        "meta_mean_motion": 15.74212626,
        "meta_eccentricity": 0.00010352,
        "meta_inclination": 53.1575,
        "meta_ra_of_asc_node": 5.9969,
        "meta_arg_of_pericenter": 72.5868,
        "meta_mean_anomaly": 214.7676,
        "meta_ephemeris_type": 0,
        "meta_classification_type": "U",
        "meta_norad_cat_id": 66952,
        "meta_element_set_no": 999,
        "meta_rev_at_epoch": 341,
        "meta_bstar": -0.00039894495,
        "meta_mean_motion_dot": -0.00058709,
        "meta_mean_motion_ddot": 0,
        "tle_line1": "1 66952U 25286AD  25355.58335648 -.00058709  00000+0 -39894-3 0  9999",
        "tle_line2": "2 66952  53.1575   5.9969 0001035  72.5868 214.7676 15.74212626  3416"
      },
      "geometry": {
        "type": "Point",
        "coordinates": [
          58.90987166974202,
          47.28201576570507
        ]
      }
    },
    {
      "type": "Feature",
      "properties": {
        "norad_id": 66953,
        "name": "HULIANWANG DIGUI-114",
        "group": "last-30-days",
        "lat": 76.39882954740244,
        "lon": -2.493485282422191,
        "alt_km": 1007.9607860529759,
        "timestamp": "2025-12-21T20:41:06.759030+00:00",
        "meta_object_name": "HULIANWANG DIGUI-114",
        "meta_object_id": "2025-287A",
        "meta_epoch": "2025-12-20T09:09:14.655168",
        "meta_mean_motion": 13.66161866,
        "meta_eccentricity": 0.00096738,
        "meta_inclination": 86.496,
        "meta_ra_of_asc_node": 343.3747,
        "meta_arg_of_pericenter": 185.0352,
        "meta_mean_anomaly": 175.071,
        "meta_ephemeris_type": 0,
        "meta_classification_type": "U",
        "meta_norad_cat_id": 66953,
        "meta_element_set_no": 999,
        "meta_rev_at_epoch": 157,
        "meta_bstar": 3.033618e-06,
        "meta_mean_motion_dot": 1.9e-07,
        "meta_mean_motion_ddot": 0,
        "tle_line1": "1 66953U 25287A   25354.38141962  .00000019  00000+0  30336-5 0  9995",
        "tle_line2": "2 66953  86.4960 343.3747 0009673 185.0352 175.0710 13.66161866  1572"
      },
      "geometry": {
        "type": "Point",
        "coordinates": [
          -2.493485282422191,
          76.39882954740244
        ]
      }
    }
  ]
}